NORAD_CAT_ID,OBJECT_NAME,OBJECT_TYPE,EPOCH,MEAN_MOTION,ECCENTRICITY,INCLINATION,RA_OF_ASC_NODE,ARG_OF_PERICENTER,MEAN_ANOMALY,BSTAR,MEAN_MOTION_DOT,MEAN_MOTION_DDOT,TLE_LINE0,TLE_LINE1,TLE_LINE2,SEMIMAJOR_AXIS,PERIOD,APOGEE,PERIGEE,DECAYED
53589.0,STARLINK-4673,PAYLOAD,2024-06-19 01:38:25,15.08835557,9.78e-05,53.2159,186.1644,86.5554,273.555,8.777e-05,1.109e-05,0.0,0 STARLINK-4673,1 53589U 22104B   24171.06835423  .00001109  00000-0  87770-4 0  9999,2 53589  53.2159 186.1644 0000978  86.5554 273.5550 15.08835557100021,6917.894,95.438,540.436,539.082,0.0
53589.0,STARLINK-4673,PAYLOAD,2024-06-19 07:59:58,15.08835634,9.89e-05,53.216,184.9751,86.1337,273.9768,8.2165e-05,1.02e-05,0.0,0 STARLINK-4673,1 53589U 22104B   24171.33331507  .00001020  00000-0  82165-4 0  9998,2 53589  53.2160 184.9751 0000989  86.1337 273.9768 15.08835634101083,6917.894,95.438,540.443,539.075,0.0
53589.0,STARLINK-4673,PAYLOAD,2024-06-20 04:39:59,15.08837442,0.0001003,53.2161,181.1098,86.0499,274.0607,5.1573e-05,5.33e-06,0.0,0 STARLINK-4673,1 53589U 22104B   24172.19443678  .00000533  00000-0  51573-4 0  9993,2 53589  53.2161 181.1098 0001003  86.0499 274.0607 15.08837442100197,6917.888,95.438,540.447,539.059,0.0
53589.0,STARLINK-4673,PAYLOAD,2024-06-20 09:26:08,15.08837626,0.000103,53.2163,180.2176,85.2123,274.8987,4.7695e-05,4.71e-06,0.0,0 STARLINK-4673,1 53589U 22104B   24172.39315698  .00000471  00000-0  47695-4 0  9996,2 53589  53.2163 180.2176 0001030  85.2123 274.8987 15.08837626101241,6917.888,95.438,540.465,539.04,0.0
53589.0,STARLINK-4673,PAYLOAD,2024-06-21 09:16:55,15.08838671,0.0001086,53.2166,175.7576,87.323,272.7887,5.394e-05,5.71e-06,0.0,0 STARLINK-4673,1 53589U 22104B   24173.38675737  .00000571  00000-0  53940-4 0  9990,2 53589  53.2166 175.7576 0001086  87.3230 272.7887 15.08838671100370,6917.884,95.438,540.501,538.998,0.0
53589.0,STARLINK-4673,PAYLOAD,2024-06-22 09:07:43,15.08835794,0.0001101,53.2167,171.2973,86.7484,273.3634,2.1777e-05,5.9e-07,0.0,0 STARLINK-4673,1 53589U 22104B   24174.38036210  .00000059  00000-0  21777-4 0  9992,2 53589  53.2167 171.2973 0001101  86.7484 273.3634 15.08835794101545,6917.893,95.438,540.52,538.997,0.0
53589.0,STARLINK-4673,PAYLOAD,2024-06-23 08:58:30,15.08840338,0.0001127,53.2165,166.8359,84.3517,275.7604,6.2019e-05,6.99e-06,0.0,0 STARLINK-4673,1 53589U 22104B   24175.37395973  .00000699  00000-0  62019-4 0  9990,2 53589  53.2165 166.8359 0001127  84.3517 275.7604 15.08840338101699,6917.879,95.438,540.524,538.965,0.0
53589.0,STARLINK-4673,PAYLOAD,2024-06-24 04:03:07,15.08842487,0.0001155,53.2165,163.2678,79.2109,280.9013,0.00010955,1.456e-05,0.0,0 STARLINK-4673,1 53589U 22104B   24176.16883650  .00001456  00000-0  10955-3 0  9995,2 53589  53.2165 163.2678 0001155  79.2109 280.9013 15.08842487100794,6917.873,95.437,540.537,538.939,0.0
53589.0,STARLINK-4673,PAYLOAD,2024-06-24 08:49:16,15.08845079,0.0001179,53.2162,162.3753,78.5404,281.5721,0.00013116,1.8e-05,0.0,0 STARLINK-4673,1 53589U 22104B   24176.36755414  .00001800  00000-0  13116-3 0  9998,2 53589  53.2162 162.3753 0001179  78.5404 281.5721 15.08845079101841,6917.865,95.437,540.545,538.914,0.0
53589.0,STARLINK-4673,PAYLOAD,2024-06-25 05:29:17,15.0884142,0.0001152,53.2158,158.5084,83.6951,276.4172,3.3901e-05,2.52e-06,0.0,0 STARLINK-4673,1 53589U 22104B   24177.22867794  .00000252  00000-0  33901-4 0  9994,2 53589  53.2158 158.5084 0001152  83.6951 276.4172 15.08841420100955,6917.876,95.437,540.538,538.944,0.0
53589.0,STARLINK-4673,PAYLOAD,2024-06-26 05:20:04,15.08842014,0.0001216,53.2161,154.0461,93.8886,266.2245,2.2005e-05,6.2e-07,0.0,0 STARLINK-4673,1 53589U 22104B   24178.22227635  .00000062  00000-0  22005-4 0  9991,2 53589  53.2161 154.0461 0001216  93.8886 266.2245 15.08842014102129,6917.874,95.437,540.58,538.898,0.0
53589.0,STARLINK-4673,PAYLOAD,2024-06-27 05:10:52,15.08835251,0.0001261,53.2163,149.589,96.3277,263.7859,3.003e-05,1.9e-06,0.0,0 STARLINK-4673,1 53589U 22104B   24179.21588197  .00000190  00000-0  30030-4 0  9993,2 53589  53.2163 149.5890 0001261  96.3277 263.7859 15.08835251101259,6917.895,95.438,540.632,538.888,0.0
53589.0,STARLINK-4673,PAYLOAD,2024-06-27 14:43:10,15.08840548,0.0001263,53.2166,147.8047,88.8886,271.2251,6.8103e-05,7.96e-06,0.0,0 STARLINK-4673,1 53589U 22104B   24179.61331855  .00000796  00000-0  68103-4 0  9998,2 53589  53.2166 147.8047 0001263  88.8886 271.2251 15.08840548102336,6917.879,95.438,540.617,538.87,0.0
53589.0,STARLINK-4673,PAYLOAD,2024-06-28 14:33:57,15.08846011,0.0001567,53.2175,143.3462,84.44,275.677,8.2031e-05,1.018e-05,0.0,0 STARLINK-4673,1 53589U 22104B   24180.60691857  .00001018  00000-0  82031-4 0  9994,2 53589  53.2175 143.3462 0001567  84.4400 275.6770 15.08846011102480,6917.862,95.437,540.811,538.643,0.0
53589.0,STARLINK-4673,PAYLOAD,2024-06-29 04:52:26,15.08838151,0.0001508,53.2161,140.6659,74.2246,285.8912,4.1084e-05,3.66e-06,0.0,0 STARLINK-4673,1 53589U 22104B   24181.20308646  .00000366  00000-0  41084-4 0  9990,2 53589  53.2161 140.6659 0001508  74.2246 285.8912 15.08838151101557,6917.886,95.438,540.794,538.708,0.0
53589.0,STARLINK-4673,PAYLOAD,2024-06-29 14:24:45,15.08820769,0.0001535,53.2152,138.886,96.341,263.7757,0.00045889,7.019e-05,0.0,0 STARLINK-4673,1 53589U 22104B   24181.60052962  .00007019  00000-0  45889-3 0  9999,2 53589  53.2152 138.8860 0001535  96.3410 263.7757 15.08820769102636,6917.939,95.439,540.866,538.742,0.0
53589.0,STARLINK-4673,PAYLOAD,2024-06-30 06:18:37,15.08838958,0.0001306,53.2153,135.9085,84.1313,275.9828,4.494e-05,4.27e-06,0.0,0 STARLINK-4673,1 53589U 22104B   24182.26292878  .00000427  00000-0  44940-4 0  9998,2 53589  53.2153 135.9085 0001306  84.1313 275.9828 15.08838958101718,6917.884,95.438,540.652,538.845,0.0
53589.0,STARLINK-4673,PAYLOAD,2024-06-30 14:15:32,15.08849464,0.0001354,53.2161,134.4219,85.9222,274.1925,7.6041e-05,9.23e-06,0.0,0 STARLINK-4673,1 53589U 22104B   24182.59412055  .00000923  00000-0  76041-4 0  9993,2 53589  53.2161 134.4219 0001354  85.9222 274.1925 15.08849464102782,6917.851,95.437,540.653,538.78,0.0
53589.0,STARLINK-4673,PAYLOAD,2024-07-01 02:58:38,15.08834398,0.0001363,53.2176,132.044,91.2299,268.8849,8.9803e-05,1.141e-05,0.0,0 STARLINK-4673,1 53589U 22104B   24183.12405118  .00001141  00000-0  89803-4 0  9998,2 53589  53.2176 132.0440 0001363  91.2299 268.8849 15.08834398101843,6917.898,95.438,540.705,538.82,0.0
53589.0,STARLINK-4673,PAYLOAD,2024-07-01 14:06:18,15.08850892,0.000152,53.2177,129.9588,101.1726,258.9437,0.0001092,1.451e-05,0.0,0 STARLINK-4673,1 53589U 22104B   24183.58771812  .00001451  00000-0  10920-3 0  9992,2 53589  53.2177 129.9588 0001520 101.1726 258.9437 15.08850892102934,6917.847,95.437,540.764,538.661,0.0
53589.0,STARLINK-4673,PAYLOAD,2024-07-01 20:27:51,15.08840587,0.0001702,53.218,128.7711,106.1726,253.9454,0.00013337,1.835e-05,0.0,0 STARLINK-4673,1 53589U 22104B   24183.85268433  .00001835  00000-0  13337-3 0  9993,2 53589  53.2180 128.7711 0001702 106.1726 253.9454 15.08840587101955,6917.879,95.438,540.921,538.566,0.0
53589.0,STARLINK-4673,PAYLOAD,2024-07-02 02:49:25,15.08833588,0.0001547,53.2161,127.5837,93.0446,267.0723,0.00011952,1.614e-05,0.0,0 STARLINK-4673,1 53589U 22104B   24184.11765135  .00001614  00000-0  11952-3 0  9990,2 53589  53.2161 127.5837 0001547  93.0446 267.0723 15.08833588101992,6917.9,95.438,540.835,538.695,0.0
53589.0,STARLINK-4673,PAYLOAD,2024-07-03 05:50:58,15.08828235,0.0001468,53.2176,122.5264,101.7179,258.3978,0.00011695,1.573e-05,0.0,0 STARLINK-4673,1 53589U 22104B   24185.24373570  .00001573  00000-0  11695-3 0  9991,2 53589  53.2176 122.5264 0001468 101.7179 258.3978 15.08828235102167,6917.916,95.438,540.797,538.766,0.0
53589.0,STARLINK-4673,PAYLOAD,2024-07-04 02:30:59,15.08839459,0.0001291,53.2164,118.6636,89.123,270.991,0.00010217,1.338e-05,0.0,0 STARLINK-4673,1 53589U 22104B   24186.10484996  .00001338  00000-0  10217-3 0  9990,2 53589  53.2164 118.6636 0001291  89.1230 270.9910 15.08839459102294,6917.882,95.438,540.64,538.854,0.0
53589.0,STARLINK-4673,PAYLOAD,2024-07-04 12:03:17,15.08849061,0.0001252,53.2168,116.8799,87.6718,272.4417,0.00014797,2.068e-05,0.0,0 STARLINK-4673,1 53589U 22104B   24186.50228181  .00002068  00000-0  14797-3 0  9994,2 53589  53.2168 116.8799 0001252  87.6718 272.4417 15.08849061102355,6917.853,95.437,540.584,538.852,0.0
53589.0,STARLINK-4673,PAYLOAD,2024-07-04 23:11:00,15.08832365,0.0001422,53.2161,114.7968,81.4318,278.6835,4.873e-05,4.88e-06,0.0,0 STARLINK-4673,1 53589U 22104B   24186.96597709  .00000488  00000-0  48730-4 0  9998,2 53589  53.2161 114.7968 0001422  81.4318 278.6835 15.08832365103442,6917.904,95.438,540.752,538.785,0.0
53589.0,STARLINK-4673,PAYLOAD,2024-07-05 02:21:46,15.08839226,0.0001317,53.2173,114.205,90.4861,269.6283,9.7172e-05,1.259e-05,0.0,0 STARLINK-4673,1 53589U 22104B   24187.09845190  .00001259  00000-0  97172-4 0  9994,2 53589  53.2173 114.2050 0001317  90.4861 269.6283 15.08839226102447,6917.883,95.438,540.659,538.837,0.0
53589.0,STARLINK-4673,PAYLOAD,2024-07-05 05:32:32,15.08842623,0.0001275,53.2169,113.6087,85.9878,274.126,0.00013536,1.867e-05,0.0,0 STARLINK-4673,1 53589U 22104B   24187.23092930  .00001867  00000-0  13536-3 0  9992,2 53589  53.2169 113.6087 0001275  85.9878 274.1260 15.08842623103481,6917.872,95.437,540.619,538.855,0.0
53589.0,STARLINK-4673,PAYLOAD,2024-07-06 03:47:56,15.08838818,0.000131,53.2177,109.4481,94.3458,265.7684,4.2681e-05,3.91e-06,0.0,0 STARLINK-4673,1 53589U 22104B   24188.15829641  .00000391  00000-0  42681-4 0  9996,2 53589  53.2177 109.4481 0001310  94.3458 265.7684 15.08838818102609,6917.884,95.438,540.655,538.843,0.0
53589.0,STARLINK-4673,PAYLOAD,2024-07-06 11:44:51,15.08848637,0.0001249,53.2173,107.96,88.3295,271.784,7.0359e-05,8.32e-06,0.0,0 STARLINK-4673,1 53589U 22104B   24188.48948804  .00000832  00000-0  70359-4 0  9998,2 53589  53.2173 107.9600 0001249  88.3295 271.7840 15.08848637102650,6917.854,95.437,540.583,538.855,0.0
